STARLINK-34489          
1 64679U 25139R   26166.93210855  .00019706  00000+0  59273-3 0  9997
2 64679  53.1593  29.4269 0001240 137.6327 222.4771 15.34406083 55344
STARLINK-34502          
1 64680U 25139S   26166.89003390  .00029891  00000+0  89205-3 0  9992
2 64680  53.1606  29.1646 0001298  70.0745 290.0398 15.34408231 55347
STARLINK-34553          
1 64681U 25139T   26166.88371759  .00020693  00000+0  62200-3 0  9996
2 64681  53.1612  29.1259 0001332  83.4809 276.6345 15.34394129 55345
STARLINK-34551          
1 64682U 25139U   26166.87267603  .00018368  00000+0  63060-3 0  9999
2 64682  53.1603  20.5324 0000881  83.3375 276.7727 15.30207249 55469
STARLINK-34550          
1 64683U 25139V   26166.90896628  .00022043  00000+0  66175-3 0  9994
2 64683  53.1592  29.2833 0001249  94.9727 265.1418 15.34394079 55344
STARLINK-34485          
1 64684U 25139W   26166.92580522  .00023946  00000+0  71722-3 0  9997
2 64684  53.1582  29.3855 0001059 104.3882 255.7238 15.34415956 55349
STARLINK-34253          
1 64685U 25139X   26166.93632277  .00016808  00000+0  50758-3 0  9999
2 64685  53.1599  29.4504 0001435  90.0611 270.0556 15.34393338 55341
STARLINK-34565          
1 64686U 25139Y   26166.91948756  .00025092  00000+0  75141-3 0  9998
2 64686  53.1579  29.3460 0001025  94.9577 265.1543 15.34394143 55345
STARLINK-34554          
1 64687U 25139Z   26166.89634326  .00020638  00000+0  62025-3 0  9999
2 64687  53.1593  29.2050 0001177  85.6265 274.4872 15.34401219 55346
STARLINK-34262          
1 64688U 25139AA  26166.91527984  .00017237  00000+0  52033-3 0  9993
2 64688  53.1585  29.3174 0001332  89.2509 270.8646 15.34386952 55402
STARLINK-34538          
1 64689U 25139AB  26166.91317289  .00024758  00000+0  74154-3 0  9993
2 64689  53.1582  29.3057 0001214  85.2546 274.8595 15.34396528 55346
STARLINK-34250          
1 64690U 25139AC  26166.92790804  .00025889  00000+0  77491-3 0  9997
2 64690  53.1591  29.3957 0001091 100.0542 260.0584 15.34392322 55345
LYRA-4                  
1 64691U 25140A   26167.06191920  .00001112  00000+0  17958-3 0  9995
2 64691  96.0058 287.7689 0011868 201.8592 158.2116 14.72495312 51899
GOSAT-GW (IBUKI GW)     
1 64694U 25141A   26167.16742715  .00000641  00000+0  12146-3 0  9994
2 64694  98.0569 104.5011 0001420  83.5099 276.6268 14.67554622 51691
STARLINK-34497          
1 64696U 25142A   26167.10603515  .00002248  00000+0  19614-3 0  9997
2 64696  70.0017  66.2766 0002753 270.7134  89.3709 14.98332590 54382
STARLINK-34584          
1 64697U 25142B   26167.15592983  .00001762  00000+0  15542-3 0  9995
2 64697  70.0019  66.0446 0003226 268.0187  92.0603 14.98334090 54237
STARLINK-34535          
1 64698U 25142C   26167.13508838  .00003150  00000+0  27166-3 0  9998
2 64698  70.0014  66.3546 0002762 268.2159  91.8684 14.98332286 54211
STARLINK-34600          
1 64699U 25142D   26166.99740338 -.00020494  00000+0 -17171-2 0  9991
2 64699  70.0016  66.6727 0002740 272.7194  87.3651 14.98278816 54204
STARLINK-34560          
1 64700U 25142E   26167.14342816 -.00005368  00000+0 -44243-3 0  9995
2 64700  70.0022  66.3741 0002944 275.0891  84.9932 14.98330444 54181
STARLINK-34576          
1 64701U 25142F   26167.16026824  .00002113  00000+0  18480-3 0  9993
2 64701  70.0018  66.0309 0002731 269.1531  90.9315 14.98334717 54227
STARLINK-34322          
1 64702U 25142G   26167.16444252  .00002317  00000+0  20186-3 0  9995
2 64702  70.0024  66.0487 0002819 268.3622  91.7215 14.98334310 54396
STARLINK-34470          
1 64703U 25142H   26167.15192091  .00001650  00000+0  14605-3 0  9994
2 64703  70.0017  66.0046 0002993 268.6007  91.4809 14.98332932 54218
STARLINK-34405          
1 64704U 25142J   26167.10186112  .00002751  00000+0  23827-3 0  9996
2 64704  70.0018  66.2602 0002591 267.9547  92.1316 14.98332352 54234
STARLINK-34406          
1 64705U 25142K   26166.99323149  .00005942  00000+0  50538-3 0  9990
2 64705  70.0018  66.6837 0003153 275.1455  84.9344 14.98325918 54323
STARLINK-34559          
1 64706U 25142L   26167.10169434  .00002323  00000+0  20239-3 0  9995
2 64706  70.0017  66.2567 0002509 271.0330  89.0542 14.98334501 54234
STARLINK-34316          
1 64707U 25142M   26167.10586755  .00003066  00000+0  26460-3 0  9992
2 64707  70.0016  66.2706 0003013 263.2642  96.8174 14.98334342 54396
STARLINK-34563          
1 64708U 25142N   26167.14760985  .00003284  00000+0  28288-3 0  9998
2 64708  70.0015  66.4141 0002709 270.3012  89.7836 14.98332625 54200
STARLINK-34499          
1 64709U 25142P   26167.09751799  .00002340  00000+0  20386-3 0  9999
2 64709  70.0023  66.2220 0002806 263.5937  96.4902 14.98333725 54205
STARLINK-34447          
1 64710U 25142Q   26166.98503536  .00002317  00000+0  20190-3 0  9999
2 64710  70.0016  66.6155 0002699 268.6894  91.3956 14.98332430 54371
STARLINK-34312          
1 64711U 25142R   26167.11020860  .00002064  00000+0  18073-3 0  9996
2 64711  70.0018  66.2803 0002887 268.2954  91.7874 14.98331841 54392
