OBJECT_NAME,OBJECT_ID,EPOCH,MEAN_MOTION,ECCENTRICITY,INCLINATION,RA_OF_ASC_NODE,ARG_OF_PERICENTER,MEAN_ANOMALY,EPHEMERIS_TYPE,CLASSIFICATION_TYPE,NORAD_CAT_ID,ELEMENT_SET_NO,REV_AT_EPOCH,BSTAR,MEAN_MOTION_DOT,MEAN_MOTION_DDOT
STARLINK-34489,2025-139R,2026-06-15T22:22:14.178720,15.34406083,.000124,53.1593,29.4269,137.6327,222.4771,0,U,64679,999,5534,.59273E-3,.19706E-3,0
STARLINK-34502,2025-139S,2026-06-15T21:21:38.928960,15.34408231,.00012986,53.1606,29.1646,70.0745,290.0398,0,U,64680,999,5534,.89204624E-3,.29891E-3,0
STARLINK-34553,2025-139T,2026-06-15T21:12:33.199776,15.34394129,.00013323,53.1612,29.1259,83.4809,276.6345,0,U,64681,999,5534,.62200418E-3,.20693E-3,0
STARLINK-34551,2025-139U,2026-06-15T20:56:39.208992,15.30207249,.00008819,53.1603,20.5324,83.3375,276.7727,0,U,64682,999,5546,.63059767E-3,.18368E-3,0
STARLINK-34550,2025-139V,2026-06-15T21:48:54.686592,15.34394079,.0001249,53.1592,29.2833,94.9727,265.1418,0,U,64683,999,5534,.66175E-3,.22043E-3,0
STARLINK-34485,2025-139W,2026-06-15T22:13:09.571008,15.34415956,.0001059,53.1582,29.3855,104.3882,255.7238,0,U,64684,999,5534,.71722E-3,.23946E-3,0
STARLINK-34253,2025-139X,2026-06-15T22:28:18.287328,15.34393338,.0001435,53.1599,29.4504,90.0611,270.0556,0,U,64685,999,5534,.50758E-3,.16808E-3,0
STARLINK-34565,2025-139Y,2026-06-15T22:04:03.725184,15.34394143,.0001025,53.1579,29.3460,94.9577,265.1543,0,U,64686,999,5534,.75141E-3,.25092E-3,0
STARLINK-34554,2025-139Z,2026-06-15T21:30:44.057664,15.34401219,.0001177,53.1593,29.2050,85.6265,274.4872,0,U,64687,999,5534,.62025E-3,.20638E-3,0
STARLINK-34262,2025-139AA,2026-06-15T21:58:00.178176,15.34386952,.0001332,53.1585,29.3174,89.2509,270.8646,0,U,64688,999,5540,.52033E-3,.17237E-3,0
STARLINK-34538,2025-139AB,2026-06-15T21:54:58.137696,15.34396528,.0001214,53.1582,29.3057,85.2546,274.8595,0,U,64689,999,5534,.74154E-3,.24758E-3,0
STARLINK-34250,2025-139AC,2026-06-15T22:16:11.254656,15.34392322,.0001091,53.1591,29.3957,100.0542,260.0584,0,U,64690,999,5534,.77491E-3,.25889E-3,0
LYRA-4,2025-140A,2026-06-16T01:29:09.818880,14.72495312,.0011868,96.0058,287.7689,201.8592,158.2116,0,U,64691,999,5189,.17958E-3,.1112E-4,0
GOSAT-GW (IBUKI GW),2025-141A,2026-06-16T04:01:05.705760,14.67554622,.000142,98.0569,104.5011,83.5099,276.6268,0,U,64694,999,5169,.12146E-3,.641E-5,0
STARLINK-34497,2025-142A,2026-06-16T02:32:41.436960,14.98332590,.0002753,70.0017,66.2766,270.7134,89.3709,0,U,64696,999,5438,.19614E-3,.2248E-4,0
STARLINK-34584,2025-142B,2026-06-16T03:44:32.337312,14.98334090,.0003226,70.0019,66.0446,268.0187,92.0603,0,U,64697,999,5423,.15542E-3,.1762E-4,0
STARLINK-34535,2025-142C,2026-06-16T03:14:31.636032,14.98332286,.0002762,70.0014,66.3546,268.2159,91.8684,0,U,64698,999,5421,.27166E-3,.315E-4,0
STARLINK-34600,2025-142D,2026-06-15T23:56:15.652032,14.98278816,.000274,70.0016,66.6727,272.7194,87.3651,0,U,64699,999,5420,-.17171E-2,-.20494E-3,0
STARLINK-34560,2025-142E,2026-06-16T03:26:32.193024,14.98330444,.0002944,70.0022,66.3741,275.0891,84.9932,0,U,64700,999,5418,-.44243E-3,-.5368E-4,0
STARLINK-34576,2025-142F,2026-06-16T03:50:47.175936,14.98334717,.0002731,70.0018,66.0309,269.1531,90.9315,0,U,64701,999,5422,.1848E-3,.2113E-4,0
STARLINK-34322,2025-142G,2026-06-16T03:56:47.833728,14.98334310,.0002819,70.0024,66.0487,268.3622,91.7215,0,U,64702,999,5439,.20186E-3,.2317E-4,0
STARLINK-34470,2025-142H,2026-06-16T03:38:45.966624,14.98332932,.0002993,70.0017,66.0046,268.6007,91.4809,0,U,64703,999,5421,.14605E-3,.165E-4,0
STARLINK-34405,2025-142J,2026-06-16T02:26:40.800768,14.98332352,.0002591,70.0018,66.2602,267.9547,92.1316,0,U,64704,999,5423,.23827E-3,.2751E-4,0
STARLINK-34406,2025-142K,2026-06-15T23:50:15.200736,14.98325918,.0003153,70.0018,66.6837,275.1455,84.9344,0,U,64705,999,5432,.50538E-3,.5942E-4,0
STARLINK-34559,2025-142L,2026-06-16T02:26:26.390976,14.98334501,.0002509,70.0017,66.2567,271.0330,89.0542,0,U,64706,999,5423,.20239E-3,.2323E-4,0
STARLINK-34316,2025-142M,2026-06-16T02:32:26.956320,14.98334342,.0003013,70.0016,66.2706,263.2642,96.8174,0,U,64707,999,5439,.2646E-3,.3066E-4,0
STARLINK-34563,2025-142N,2026-06-16T03:32:33.491040,14.98332625,.0002709,70.0015,66.4141,270.3012,89.7836,0,U,64708,999,5420,.28288E-3,.3284E-4,0
STARLINK-34499,2025-142P,2026-06-16T02:20:25.554336,14.98333725,.0002806,70.0023,66.2220,263.5937,96.4902,0,U,64709,999,5420,.20386E-3,.234E-4,0
STARLINK-34447,2025-142Q,2026-06-15T23:38:27.055104,14.98332430,.0002699,70.0016,66.6155,268.6894,91.3956,0,U,64710,999,5437,.2019E-3,.2317E-4,0
STARLINK-34312,2025-142R,2026-06-16T02:38:42.023040,14.98331841,.0002887,70.0018,66.2803,268.2954,91.7874,0,U,64711,999,5439,.18073E-3,.2064E-4,0
